OBJECT_NAME,OBJECT_ID,EPOCH,MEAN_MOTION,ECCENTRICITY,INCLINATION,RA_OF_ASC_NODE,ARG_OF_PERICENTER,MEAN_ANOMALY,EPHEMERIS_TYPE,CLASSIFICATION_TYPE,NORAD_CAT_ID,ELEMENT_SET_NO,REV_AT_EPOCH,BSTAR,MEAN_MOTION_DOT,MEAN_MOTION_DDOT
ORBCOMM FM06,1997-084G,2026-07-23T08:45:14.096736,14.47638610,.0001925,45.0123,238.5417,258.4959,115.6696,0,U,25118,999,49963,.24243E-3,.756E-5,0
ORBCOMM FM04,1998-007C,2026-07-23T13:18:31.658976,14.35794454,.0042068,107.9632,244.2721,262.7010,96.9347,0,U,25159,999,48181,.24317E-3,.578E-5,0
ORBCOMM FM19,1998-046C,2026-07-23T17:19:54.325920,14.39553899,.0003397,44.9941,69.8878,119.2346,288.7769,0,U,25415,999,46204,.29022E-3,.771E-5,0
ORBCOMM FM20,1998-046D,2026-07-23T16:37:34.906368,14.38109772,.0000834,44.9942,78.3545,68.9014,291.1924,0,U,25416,999,46204,.22372E-3,.542E-5,0
ORBCOMM FM27,1998-053G,2026-07-23T06:49:30.787104,14.39195799,.0001974,45.0040,163.8943,322.2806,37.7904,0,U,25481,999,45543,.27938E-3,.731E-5,0
ORBCOMM FM32,1999-065C,2026-07-23T10:30:42.907104,14.37175804,.0006398,45.0169,1.6441,230.0106,130.0180,0,U,25982,999,39230,.20343E-3,.469E-5,0
ORBCOMM FM109,2014-040A,2026-07-22T12:08:33.561600,14.58874903,.00010987,47.0030,284.4996,346.5261,13.5595,0,U,40086,999,63950,.5479793E-4,.88E-6,0
ORBCOMM FM110,2015-081D,2026-07-23T07:58:30.885888,14.58928581,.0003835,47.0004,190.5313,254.1022,105.9441,0,U,41182,999,56290,.18419E-3,.7E-5,0
ORBCOMM FM118,2015-081E,2026-07-23T08:48:12.766752,14.58912847,.0003285,47.0026,190.7088,220.0538,140.0106,0,U,41183,999,56301,.16589E-3,.614E-5,0
ORBCOMM FM112,2015-081F,2026-07-23T17:06:46.713024,14.58948415,.0003161,46.9990,97.5188,6.5526,353.5401,0,U,41184,999,56428,.15651E-3,.57E-5,0
ORBCOMM FM113,2015-081G,2026-07-23T19:52:14.581056,14.58888890,.0001705,47.0008,97.3714,357.2246,2.8630,0,U,41185,999,56428,.10813E-3,.34E-5,0
ORBCOMM FM108,2015-081J,2026-07-23T20:35:53.403936,14.58919595,.0002077,47.0062,8.8101,357.0507,3.0366,0,U,41187,999,56543,.15167E-3,.547E-5,0
ORBCOMM FM117,2015-081K,2026-07-23T19:46:39.423360,14.58906500,.0002458,47.0024,7.5969,5.7360,354.3554,0,U,41188,999,56547,.14958E-3,.536E-5,0
ORBCOMM FM116,2015-081L,2026-07-23T17:39:21.374784,14.58915425,.0001772,47.0023,97.8045,252.4319,107.6373,0,U,41189,999,56427,.13859E-3,.485E-5,0
