ORBCOMM FM06            
1 25118U 97084G   26204.36474649  .00000756  00000+0  24243-3 0  9997
2 25118  45.0123 238.5417 0001925 258.4959 115.6696 14.47638610499638
ORBCOMM FM04            
1 25159U 98007C   26204.55453309  .00000578  00000+0  24317-3 0  9993
2 25159 107.9632 244.2721 0042068 262.7010  96.9347 14.35794454481818
ORBCOMM FM19            
1 25415U 98046C   26204.72215655  .00000771  00000+0  29022-3 0  9993
2 25415  44.9941  69.8878 0003397 119.2346 288.7769 14.39553899462043
ORBCOMM FM20            
1 25416U 98046D   26204.69276512  .00000542  00000+0  22372-3 0  9996
2 25416  44.9942  78.3545 0000834  68.9014 291.1924 14.38109772462043
ORBCOMM FM27            
1 25481U 98053G   26204.28438411  .00000731  00000+0  27938-3 0  9992
2 25481  45.0040 163.8943 0001974 322.2806  37.7904 14.39195799455431
ORBCOMM FM32            
1 25982U 99065C   26204.43799661  .00000469  00000+0  20343-3 0  9997
2 25982  45.0169   1.6441 0006398 230.0106 130.0180 14.37175804392307
ORBCOMM FM109           
1 40086U 14040A   26203.50594400  .00000088  00000+0  54798-4 0  9999
2 40086  47.0030 284.4996 0001098 346.5261  13.5595 14.58874903639501
ORBCOMM FM110           
1 41182U 15081D   26204.33230192  .00000700  00000+0  18419-3 0  9990
2 41182  47.0004 190.5313 0003835 254.1022 105.9441 14.58928581562907
ORBCOMM FM118           
1 41183U 15081E   26204.36681443  .00000614  00000+0  16589-3 0  9993
2 41183  47.0026 190.7088 0003285 220.0538 140.0106 14.58912847563015
ORBCOMM FM112           
1 41184U 15081F   26204.71304066  .00000570  00000+0  15651-3 0  9996
2 41184  46.9990  97.5188 0003161   6.5526 353.5401 14.58948415564285
ORBCOMM FM113           
1 41185U 15081G   26204.82794654  .00000340  00000+0  10813-3 0  9995
2 41185  47.0008  97.3714 0001705 357.2246   2.8630 14.58888890564286
ORBCOMM FM108           
1 41187U 15081J   26204.85825699  .00000547  00000+0  15167-3 0  9990
2 41187  47.0062   8.8101 0002077 357.0507   3.0366 14.58919595565430
ORBCOMM FM117           
1 41188U 15081K   26204.82406740  .00000536  00000+0  14958-3 0  9995
2 41188  47.0024   7.5969 0002458   5.7360 354.3554 14.58906500565471
ORBCOMM FM116           
1 41189U 15081L   26204.73566406  .00000485  00000+0  13859-3 0  9994
2 41189  47.0023  97.8045 0001772 252.4319 107.6373 14.58915425564272
